IRIDIUM 26              
1 24903U 97043A   25271.92715336  .00000911  00000+0  29946-3 0  9997
2 24903  86.3918  67.0005 0002255  90.9674 269.1782 14.37224776471642
IRIDIUM 22              
1 24907U 97043E   25271.87328345  .00000817  00000+0  27452-3 0  9990
2 24907  86.3917  70.6543 0002146  87.5046 272.6397 14.36028620471657
DUMMY MASS 1            
1 24925U 97048A   25271.51016534  .00000928  00000+0  10030-3 0  9997
2 24925  86.3291  87.5266 0008300 127.5003 232.6978 14.87069772520483
DUMMY MASS 2            
1 24926U 97048B   25271.89335404  .00000886  00000+0  96272-4 0  9995
2 24926  86.3290  88.9774 0008772 137.1371 223.0539 14.86821456520313
IRIDIUM 29              
1 24944U 97051A   25271.92863476  .00000804  00000+0  26730-3 0  9999
2 24944  86.3901 100.3687 0001927  84.7652 275.3765 14.36549421468167
IRIDIUM 33              
1 24946U 97051C   25271.88545202  .00000610  00000+0  20763-3 0  9995
2 24946  86.3816  99.6559 0009934  97.6108 262.6217 14.34951757467614
IRIDIUM 28              
1 24948U 97051E   25271.90622378  .00000775  00000+0  25274-3 0  9994
2 24948  86.3904  97.8322 0002621  91.6488 268.5010 14.37456057468740
IRIDIUM 36              
1 24967U 97056C   25271.64442232  .00000630  00000+0  20330-3 0  9998
2 24967  86.3959 129.5694 0002321  83.1923 276.9538 14.37682995467089
